STARLINK-3844           
1 52705U 22053BB  26068.41339068  .00000222  00000+0  32019-4 0  9991
2 52705  53.2172 135.3619 0001211  66.2203 293.8916 15.08831189211278
LEMUR-2-SIERRINI        
1 60579U 24149DR  26068.80891719  .00014386  00000+0  92040-3 0  9991
2 60579  97.6873 151.1225 0006580 147.8458 212.3173 15.08682764 85461
